First least square run :: 
12061.3015698  0.00265844785414  8.81110130024e-10  0.66  54.5404732267  
Convergence OK -> poursuite du programme
 
 Sommes des résidus par camera : 
              camera               sigma                   s                   n                 Sum        Sum expected                  s'
              ITSI01      0.696149300545      0.971861910221                  62       18.7997609136       1.50067339099       4.05887621273
              ITSI02      0.629945037144      0.709344552337                  43        35.740712313       1.75644691955       4.17294624441
 Sum Expected Total :: 3.25712031054
 
 Sommes des résidus par camera 2 : 
              camera               sigma                   s                   n                 Sum        Sum expected                  s'
              ITSI01      0.696149300545       4.17360655582                  62      0.479312015947       1.02736056595                   0
              ITSI02      0.629945037144       4.23280640388                  43       1.41254079816       1.02162248974       2.64717852977
 Sum Expected Total :: 2.04898305569
 
Parametre  de la meilleure solution par moindre carré :: 
 V  = 11981.7167233 m/s
 A  = 0.00247164844438 m²/kg
 B  = 8.80833405168e-10 m²/J
 mu = 0.66
 
S_min : 1.89185281411
 
 
 Estimation Parametre par Moyenne pondérée (si cette estimation est très différente de la précédente, cela peut être le signe d'un problème) :: 
 V  = 12147.6537941 m/s
 A  = 0.00499089674586 m²/kg
 B  = 4.05620574993e-10 m²/J
 
 Parametre Maria :: 
 gamma = 43.8998427433°
 Alpha = 16.4617382535
 Beta  = 8.69749313154
 
Final Mass : 7.76913602384e-10 %
 
         rho(Kg/m³)               Re(m)              Me(Kg)               Rf(m)              Mf(Kg)
                1500      0.202294141441       52.0151415804   4.00658364547e-05   4.04112710238e-10
                2500      0.121376484865        18.725450969   2.40395018728e-05   1.45480575686e-10
                3500      0.086697489189       9.55380151477   1.71710727663e-05   7.42247835131e-11
                4500     0.0674313804803        5.7794601756   1.33552788182e-05   4.49014122486e-11
                5500     0.0551711294839        3.8688948283   1.09270463058e-05    3.0057970183e-11
                6500     0.0466832634095       2.77003712558   9.24596225878e-06   2.15207952198e-11
 
Matrix of Covariance : 
    |                   Ve |                    A |                    B | 
Ve  |        123020.738684 |        1.19545346946 |   -8.15819109113e-08 | 
A   |        1.19545346946 |    1.47445830608e-05 |   -1.32842020344e-12 | 
B   |   -8.15819109113e-08 |   -1.32842020344e-12 |    2.90654348787e-19 | 
 
 
 Time shift :: 
ITSI01 : 0.027172494194 s
ITSI02 : -0.027172494194 s
 
 
 Transposed Jacobian Matrix :: 
       |             Ve(m/s) |                    A |                    B | 
dx1(m) |      0.835110926121 |    2.04969982457e-05 |   -8.79611782141e-12 | 
dx2(m) |     -0.232025117966 |   -9.18942422618e-07 |   -3.92376134026e-14 | 
dx3(m) |      0.515915831582 |    4.34029558468e-06 |   -3.69054592441e-13 | 
dx4(m) |    -0.0758560522117 |   -8.76343097621e-07 |   -8.17057255673e-14 | 
 
 Propagation des Variances :: 
        |              Ve(m/s) |                    A |                    B | 
Ve(m/s) |        4618.04929924 |      0.0632878589678 |   -2.09540901275e-08 | 
A       |      0.0632878589678 |    1.26116156067e-06 |   -5.12439074532e-13 | 
B       |   -2.09540901275e-08 |   -5.12439074532e-13 |    2.29169077861e-19 | 
 
 Variances Totales :: 
        |              Ve(m/s) |                    A |                    B | 
Ve(m/s) |        127638.787983 |        1.25874132843 |   -1.02536001039e-07 | 
A       |        1.25874132843 |    1.60057446215e-05 |   -1.84085927797e-12 | 
B       |   -1.02536001039e-07 |   -1.84085927797e-12 |    5.19823426648e-19 | 
 
sigma Ve : 357.265710617 m/s
sigma A  : 0.00400071801324 m^2/Kg
sigma B  : 7.20987813106e-10 m^2/J
 
sigma Me (relatif) : 485.593089382 %
sigma Mf (relatif) : 4667.78029539 %
 
A/B : 2.80603395589 MJ/Kg
sigma A/B : 5.08968241268 MJ/Kg
 
    Remarque : A/B decrit la solidité du bolide. Il doit être entre 50 et 8000 MJ/Kg 
 
 
 
 
------------------------------------------------------------------------ 
------------------------------------------------------------------------ 
------------------------------------------------------------------------ 
 
 
  ORBITE :: 
Perifocal Distance              :: 0.982112969241 AU
Eccentricity                    :: 0.366941870697
Inclination                     :: 1.81645527062 °
Longitude of the ascending node :: 101.834605289 °
Argument of periapsis           :: 354.446150108 °
Mean anomaly at epoch           :: 353.371191285 °
Epoch                           :: 2019-12-16T08:36:47.994
Semi-major axe                  :: 1.55137881307 AU
 
Moon near encounter             :: 59816.8802414km   ( 34.4289629569 moon radius )
Tisserand_J                     :: 4.36913854094
Tisserand_S                     :: 7.16265999649
Tisserand_U                     :: 13.3844157139
Tisserand_N                     :: 20.3981765751
 
 
  Transposed Jacobian Matrix  :: 
        |        Per dist(AU) |                  ecc |                  Inc |                 Long |                  Arg |              Mean an |                Epoch |                    a | 
dx1(km) |   -0.00029164411638 |    -0.00166335347643 |       0.229750235601 |    -0.00783374552169 |      -0.622621325907 |       0.284744984459 |        6704.35610676 |    -0.00452503268959 |  
dx2(km) |  -0.000401312117265 |     0.00276063193055 |      -0.156692901173 |      0.0109139565797 |      -0.841535004688 |       0.460196255726 |        11645.0841684 |     0.00615816148192 |  
dx3(km) |   0.000290484638645 |     0.00443162736713 |      -0.229673001167 |     0.00194974997157 |       0.711933998836 |      -0.205939965041 |        4927.86140156 |      0.0113988472032 |  
dx4(km) |   0.000375949414391 |    7.92936694762e-05 |       0.150298899381 |    -0.00967547335431 |        0.94204794575 |      -0.395224668554 |        141.086123705 |     0.00078827901525 |  
V(km/s) |  -0.000734310100878 |      0.0328635621603 |       0.443266698753 |     -0.0546915760007 |       -1.45409293818 |        2.07794152497 |        159892.406702 |       0.079334660494 |  
 
 Variances :: 
             |        Per dist(AU) |                  ecc |                  Inc |                 Long |                  Arg |              Mean an |             Epoch(s) |                    a | 
Per dist(AU) |   7.71136101291e-08 |   -3.10752702846e-06 |   -3.84779315414e-05 |    4.91392526409e-06 |    0.000155243897719 |   -0.000203853268154 |        -15.111586948 |   -7.48993889608e-06 |  
ecc          |  -3.10752702846e-06 |    0.000138175449709 |     0.00183721309046 |   -0.000228231230544 |    -0.00615655190143 |     0.00875001729796 |        671.605334982 |    0.000333535796389 |  
Inc          |  -3.84779315414e-05 |     0.00183721309046 |      0.0272664777845 |    -0.00321165024536 |     -0.0752366595066 |       0.113978072452 |         8990.9529272 |     0.00443895478648 |  
Long         |   4.91392526409e-06 |   -0.000228231230544 |    -0.00321165024536 |    0.000388691330249 |     0.00966746060073 |     -0.0142643866484 |       -1112.47286533 |   -0.000551244439102 |  
Arg          |   0.000155243897719 |    -0.00615655190143 |     -0.0752366595066 |     0.00966746060073 |       0.313559966978 |      -0.406397458368 |       -29939.9218054 |     -0.0148350201548 |  
Mean an      |  -0.000203853268154 |     0.00875001729796 |       0.113978072452 |     -0.0142643866484 |      -0.406397458368 |       0.561166421722 |        42552.1227732 |      0.0211102832194 |  
Epoch(s)     |       -15.111586948 |        671.605334982 |         8990.9529272 |       -1112.47286533 |       -29939.9218054 |        42552.1227732 |        3266744051.24 |        1621.14007858 |  
a            |  -7.48993889608e-06 |    0.000333535796389 |     0.00443895478648 |   -0.000551244439102 |     -0.0148350201548 |      0.0211102832194 |        1621.14007858 |    0.000805125119091 |  
 
     Ecarts types :: 
Per dist(AU) :   0.000277693374298 
ecc          :      0.011754805388 
Inc          :       0.16512564242 
Long         :     0.0197152562816 
Arg          :       0.55996425509 
Mean an      :      0.749110420246 
Epoch(s)     :        57155.437635 
a            :     0.0283747267668 
